DMSP 5D-3 F16 (USA 172) 
1 28054U 03048A   26161.29423902 -.00000006  00000+0  20766-4 0  9992
2 28054  98.9892 185.0768 0007416 158.1244 217.6010 14.14482559168515
METEOSAT-9 (MSG-2)      
1 28912U 05049B   26160.84991341  .00000137  00000+0  00000+0 0  9993
2 28912   9.3440  54.2378 0001663 349.5448 206.0776  1.00269219  6921
DMSP 5D-3 F17 (USA 191) 
1 29522U 06050A   26161.31069684  .00000016  00000+0  30478-4 0  9996
2 29522  98.7378 168.0214 0011310  76.9930 283.2506 14.14992111 11456
FENGYUN 3A              
1 32958U 08026A   26161.06945165  .00000061  00000+0  49544-4 0  9991
2 32958  98.6882 102.0358 0009288 142.4909 217.6917 14.19569727934397
GOES 14                 
1 35491U 09033A   26161.22621856 -.00000246  00000+0  00000+0 0  9996
2 35491   1.6711  83.1255 0001864   6.6533  36.0759  1.00113295  6521
DMSP 5D-3 F18 (USA 210) 
1 35951U 09057A   26161.28161661  .00000233  00000+0  14380-3 0  9997
2 35951  98.9035 142.0658 0009850 271.5337  88.4708 14.14892864858615
EWS-G2 (GOES 15)        
1 36411U 10008A   26161.20650044  .00000036  00000+0  00000+0 0  9998
2 36411   1.2576  82.9720 0005432  39.4069 274.1587  1.00275693 59563
COMS 1                  
1 36744U 10032A   26154.99142485 -.00000334  00000+0  00000+0 0  9999
2 36744   4.7750  75.5286 0001016   4.5847 297.3769  1.00270643 50953
FENGYUN 3B              
1 37214U 10059A   26161.30868137 -.00000349  00000+0 -15731-3 0  9991
2 37214  98.9625 207.2940 0021510 203.7829 248.1572 14.14838721806453
SUOMI NPP               
1 37849U 11061A   26161.22144776  .00000062  00000+0  50260-4 0  9993
2 37849  98.7953 102.1451 0001920  22.6702 337.4558 14.19515962757455
METEOSAT-10 (MSG-3)     
1 38552U 12035B   26161.05476167  .00000011  00000+0  00000+0 0  9996
2 38552   4.6538  61.0483 0001528 333.0195 244.3074  1.00275870 50787
METOP-B                 
1 38771U 12049A   26161.29127123  .00000081  00000+0  56720-4 0  9997
2 38771  98.6506 212.9278 0002640  35.9354 324.2001 14.21430804712283
INSAT-3D                
1 39216U 13038B   26161.29431589 -.00000322  00000+0  00000+0 0  9999
2 39216   1.9072  82.6267 0000703 315.3416  96.1628  1.00272755 47019
FENGYUN 3C              
1 39260U 13052A   26161.25915554  .00000072  00000+0  57890-4 0  9994
2 39260  98.4976 135.4522 0015582  46.5455 313.7013 14.15753434657583
METEOR-M 2              
1 40069U 14037A   26161.24737494  .00000304  00000+0  15815-3 0  9999
2 40069  98.5112 137.2317 0006982  61.2357 298.9521 14.21460622618335
HIMAWARI-8              
1 40267U 14060A   26161.29648257 -.00000258  00000+0  00000+0 0  9993
2 40267   0.0125 307.6044 0000784 159.2350  39.2194  1.00270289 42695
FENGYUN 2G              
1 40367U 14090A   26160.83345512 -.00000287  00000+0  00000+0 0  9996
2 40367   5.6193  72.9049 0003515 153.2834  71.6860  1.00276216 41926
METEOSAT-11 (MSG-4)     
1 40732U 15034A   26161.27051964  .00000081  00000+0  00000+0 0  9996
2 40732   3.1848  71.1496 0001720   7.0467 287.2978  1.00278178  7143
ELEKTRO-L 2             
1 41105U 15074A   26161.05176068 -.00000102  00000+0  00000+0 0  9999
2 41105   6.6749  70.6113 0000880 278.5236 273.4303  1.00271662 38437
SENTINEL-3A             
1 41335U 16011A   26161.27370698  .00000077  00000+0  49915-4 0  9998
2 41335  98.6249 228.7564 0001363 103.8934 256.2398 14.26738053537077
INSAT-3DR               
1 41752U 16054A   26161.14068583 -.00000059  00000+0  00000+0 0  9999
2 41752   0.0871  87.4078 0010494 186.6921 109.0383  1.00270417 35747
HIMAWARI-9              
1 41836U 16064A   26161.22526522 -.00000257  00000+0  00000+0 0  9994
2 41836   0.0459 138.2088 0000784 357.6641 344.5938  1.00271547 35149
GOES 16                 
1 41866U 16071A   26161.24786824 -.00000073  00000+0  00000+0 0  9996
2 41866   0.3220  85.5919 0000351 309.1594 208.4185  1.00270404 35038
FENGYUN 4A              
1 41882U 16077A   26160.29508830 -.00000340  00000+0  00000+0 0  9990
2 41882   2.3018  80.3704 0008327 151.5209 255.7921  1.00273462 34850
CYGFM05                 
1 41884U 16078A   26160.80367912  .00023758  00000+0  32575-3 0  9997
2 41884  34.9574 309.4711 0006816  74.5123 285.6354 15.56342667527605
CYGFM04                 
1 41885U 16078B   26160.66916469  .00028456  00000+0  32555-3 0  9997
2 41885  34.9327 278.4264 0005974 120.8097 239.3217 15.61092573527821
CYGFM02                 
1 41886U 16078C   26161.00323554  .00034699  00000+0  35324-3 0  9997
2 41886  34.9407 270.9423 0006964 125.7841 234.3534 15.64036400528048
CYGFM01                 
1 41887U 16078D   26161.11617237  .00025358  00000+0  33886-3 0  9997
2 41887  34.9405 308.5167 0006614  70.9828 289.1612 15.57023062527606
CYGFM08                 
1 41888U 16078E   26160.76764768  .00027832  00000+0  33670-3 0  9990
2 41888  34.9433 290.5994 0007798 102.5829 257.5769 15.59628728527810
CYGFM07                 
1 41890U 16078G   26160.66325436  .00026028  00000+0  31399-3 0  9999
2 41890  34.9448 279.6430 0006384 120.0054 240.1305 15.59724675527820
CYGFM03                 
1 41891U 16078H   26161.01824751  .00027633  00000+0  33312-3 0  9994
2 41891  34.9403 279.2196 0005870 110.1936 249.9421 15.59737980527857
