OBJECT_NAME,OBJECT_ID,EPOCH,MEAN_MOTION,ECCENTRICITY,INCLINATION,RA_OF_ASC_NODE,ARG_OF_PERICENTER,MEAN_ANOMALY,EPHEMERIS_TYPE,CLASSIFICATION_TYPE,NORAD_CAT_ID,ELEMENT_SET_NO,REV_AT_EPOCH,BSTAR,MEAN_MOTION_DOT,MEAN_MOTION_DDOT
DMSP 5D-3 F16 (USA 172),2003-048A,2026-06-10T07:03:42.251328,14.14482559,.00074162,98.9892,185.0768,158.1244,217.6010,0,U,28054,999,16851,.20765922E-4,-.6E-7,0
METEOSAT-9 (MSG-2),2005-049B,2026-06-09T20:23:52.518624,1.00269219,.00016632,9.3440,54.2378,349.5448,206.0776,0,U,28912,999,692,0,.137E-5,0
DMSP 5D-3 F17 (USA 191),2006-050A,2026-06-10T07:27:24.206976,14.14992111,.00113104,98.7378,168.0214,76.9930,283.2506,0,U,29522,999,1145,.30477951E-4,.16E-6,0
FENGYUN 3A,2008-026A,2026-06-10T01:40:00.622560,14.19569727,.00092884,98.6882,102.0358,142.4909,217.6917,0,U,32958,999,93439,.49543621E-4,.61E-6,0
GOES 14,2009-033A,2026-06-10T05:25:45.283584,1.00113295,.00018642,1.6711,83.1255,6.6533,36.0759,0,U,35491,999,652,0,-.246E-5,0
DMSP 5D-3 F18 (USA 210),2009-057A,2026-06-10T06:45:31.675104,14.14892864,.00098503,98.9035,142.0658,271.5337,88.4708,0,U,35951,999,85861,.14380492E-3,.233E-5,0
EWS-G2 (GOES 15),2010-008A,2026-06-10T04:57:21.638016,1.00275693,.00054329,1.2576,82.9720,39.4069,274.1587,0,U,36411,999,5956,0,.36E-6,0
COMS 1,2010-032A,2026-06-03T23:47:39.107040,1.00270643,.0001016,4.7750,75.5286,4.5847,297.3769,0,U,36744,999,5095,0,-.334E-5,0
FENGYUN 3B,2010-059A,2026-06-10T07:24:30.070368,14.14838721,.00215103,98.9625,207.2940,203.7829,248.1572,0,U,37214,999,80645,-.15731111E-3,-.349E-5,0
SUOMI NPP,2011-061A,2026-06-10T05:18:53.086464,14.19515962,.00019203,98.7953,102.1451,22.6702,337.4558,0,U,37849,999,75745,.50260326E-4,.62E-6,0
METEOSAT-10 (MSG-3),2012-035B,2026-06-10T01:18:51.408288,1.00275870,.00015289,4.6538,61.0483,333.0195,244.3074,0,U,38552,999,5078,0,.11E-6,0
METOP-B,2012-049A,2026-06-10T06:59:25.834272,14.21430804,.00026406,98.6506,212.9278,35.9354,324.2001,0,U,38771,999,71228,.56719946E-4,.81E-6,0
INSAT-3D,2013-038B,2026-06-10T07:03:48.892896,1.00272755,.00007033,1.9072,82.6267,315.3416,96.1628,0,U,39216,999,4701,0,-.322E-5,0
FENGYUN 3C,2013-052A,2026-06-10T06:13:11.038656,14.15753434,.00155821,98.4976,135.4522,46.5455,313.7013,0,U,39260,999,65758,.57889557E-4,.72E-6,0
METEOR-M 2,2014-037A,2026-06-10T05:56:13.194816,14.21460622,.00069826,98.5112,137.2317,61.2357,298.9521,0,U,40069,999,61833,.15814965E-3,.304E-5,0
HIMAWARI-8,2014-060A,2026-06-10T07:06:56.094048,1.00270289,.00007848,0.0125,307.6044,159.2350,39.2194,0,U,40267,999,4269,0,-.258E-5,0
FENGYUN 2G,2014-090A,2026-06-09T20:00:10.522368,1.00276216,.00035152,5.6193,72.9049,153.2834,71.6860,0,U,40367,999,4192,0,-.287E-5,0
METEOSAT-11 (MSG-4),2015-034A,2026-06-10T06:29:32.896896,1.00278178,.00017207,3.1848,71.1496,7.0467,287.2978,0,U,40732,999,714,0,.81E-6,0
ELEKTRO-L 2,2015-074A,2026-06-10T01:14:32.122752,1.00271662,.00008802,6.6749,70.6113,278.5236,273.4303,0,U,41105,999,3843,0,-.102E-5,0
SENTINEL-3A,2016-011A,2026-06-10T06:34:08.283072,14.26738053,.0001363,98.6249,228.7564,103.8934,256.2398,0,U,41335,999,53707,.49914737E-4,.77E-6,0
INSAT-3DR,2016-054A,2026-06-10T03:22:35.255712,1.00270417,.00104948,0.0871,87.4078,186.6921,109.0383,0,U,41752,999,3574,0,-.59E-6,0
HIMAWARI-9,2016-064A,2026-06-10T05:24:22.915008,1.00271547,.0000784,0.0459,138.2088,357.6641,344.5938,0,U,41836,999,3514,0,-.257E-5,0
GOES 16,2016-071A,2026-06-10T05:56:55.815936,1.00270404,.00003518,0.3220,85.5919,309.1594,208.4185,0,U,41866,999,3503,0,-.73E-6,0
FENGYUN 4A,2016-077A,2026-06-09T07:04:55.629120,1.00273462,.0008327,2.3018,80.3704,151.5209,255.7921,0,U,41882,999,3485,0,-.34E-5,0
CYGFM05,2016-078A,2026-06-09T19:17:17.875968,15.56342667,.0006816,34.9574,309.4711,74.5123,285.6354,0,U,41884,999,52760,.32575E-3,.23758E-3,0
CYGFM04,2016-078B,2026-06-09T16:03:35.829216,15.61092573,.00059745,34.9327,278.4264,120.8097,239.3217,0,U,41885,999,52782,.32555157E-3,.28456E-3,0
CYGFM02,2016-078C,2026-06-10T00:04:39.550656,15.64036400,.00069649,34.9407,270.9423,125.7841,234.3534,0,U,41886,999,52804,.35324084E-3,.34699E-3,0
CYGFM01,2016-078D,2026-06-10T02:47:17.292768,15.57023062,.00066141,34.9405,308.5167,70.9828,289.1612,0,U,41887,999,52760,.33885816E-3,.25358E-3,0
CYGFM08,2016-078E,2026-06-09T18:25:24.759552,15.59628728,.00077981,34.9433,290.5994,102.5829,257.5769,0,U,41888,999,52781,.33670217E-3,.27832E-3,0
CYGFM07,2016-078G,2026-06-09T15:55:05.176704,15.59724675,.00063842,34.9448,279.6430,120.0054,240.1305,0,U,41890,999,52782,.31399299E-3,.26028E-3,0
CYGFM03,2016-078H,2026-06-10T00:26:16.584864,15.59737980,.00058706,34.9403,279.2196,110.1936,249.9421,0,U,41891,999,52785,.33312432E-3,.27633E-3,0
